EARTHCARE               
1 59908U 24101A   24287.42363849  .00027843  00000+0  38583-3 0  9994
2 59908  96.9911  52.6057 0001610  76.3605 283.7830 15.57043244 21377
